{"type": "FeatureCollection", "features": [ {"type": "Feature", "properties": {"norad_id": 30467, "name": "FENGYUN 1C DEB", "group": "fengyun-1c-debris", "lat": -7.131966500622396, "lon": -153.93038665615035, "alt_km": 843.7129126729396, "timestamp": "2025-12-25T22:42:17.287808+00:00", "meta": {"OBJECT_NAME": "FENGYUN 1C DEB", "OBJECT_ID": "1999-025AGE", "EPOCH": "2025-12-25T13:55:36.318144", "MEAN_MOTION": 14.17318052, "ECCENTRICITY": 0.0065132, "INCLINATION": 98.6779, "RA_OF_ASC_NODE": 26.8075, "ARG_OF_PERICENTER": 91.0711, "MEAN_ANOMALY": 30.1413, "EPHEMERIS_TYPE": 0, "CLASSIFICATION_TYPE": "U", "NORAD_CAT_ID": 30467, "ELEMENT_SET_NO": 999, "REV_AT_EPOCH": 97359, "BSTAR": 0.00083346, "MEAN_MOTION_DOT": 1.678e-05, "MEAN_MOTION_DDOT": 0}, "tle": {"line1": "1 30467U 99025AGE 25359.58028146  .00001678  00000+0  83346-3 0  9991", "line2": "2 30467  98.6779  26.8075 0065132  91.0711  30.1413 14.17318052973599"}}, "geometry": {"type": "Point", "coordinates": [-153.93038665615035, -7.131966500622396]}}, {"type": "Feature", "properties": {"norad_id": 30468, "name": "FENGYUN 1C DEB", "group": "fengyun-1c-debris", "lat": -59.22130900388682, "lon": 96.85705273604012, "alt_km": 805.2279659006263, "timestamp": "2025-12-25T22:42:17.287818+00:00", "meta": {"OBJECT_NAME": "FENGYUN 1C DEB", "OBJECT_ID": "1999-025AGF", "EPOCH": "2025-12-25T04:41:10.974624", "MEAN_MOTION": 14.20782588, "ECCENTRICITY": 0.00713259, "INCLINATION": 98.9213, "RA_OF_ASC_NODE": 80.8084, "ARG_OF_PERICENTER": 3.6048, "MEAN_ANOMALY": 58.8617, "EPHEMERIS_TYPE": 0, "CLASSIFICATION_TYPE": "U", "NORAD_CAT_ID": 30468, "ELEMENT_SET_NO": 999, "REV_AT_EPOCH": 96987, "BSTAR": 0.001480672, "MEAN_MOTION_DOT": 3.235e-05, "MEAN_MOTION_DDOT": 0}, "tle": {"line1": "1 30468U 99025AGF 25359.19526591  .00003235  00000+0  14807-2 0  9992", "line2": "2 30468  98.9213  80.8084 0071325   3.6048  58.8617 14.20782588969871"}}, "geometry": {"type": "Point", "coordinates": [96.85705273604012, -59.22130900388682]}}, {"type": "Feature", "properties": {"norad_id": 30469, "name": "FENGYUN 1C DEB", "group": "fengyun-1c-debris", "lat": -39.23590740418795, "lon": 22.629103365429437, "alt_km": 904.2007605985236, "timestamp": "2025-12-25T22:42:17.287829+00:00", "meta": {"OBJECT_NAME": "FENGYUN 1C DEB", "OBJECT_ID": "1999-025AGG", "EPOCH": "2025-12-24T13:15:55.730304", "MEAN_MOTION": 13.96541999, "ECCENTRICITY": 0.01586979, "INCLINATION": 98.4786, "RA_OF_ASC_NODE": 208.3409, "ARG_OF_PERICENTER": 136.6062, "MEAN_ANOMALY": 280.2077, "EPHEMERIS_TYPE": 0, "CLASSIFICATION_TYPE": "U", "NORAD_CAT_ID": 30469, "ELEMENT_SET_NO": 999, "REV_AT_EPOCH": 95871, "BSTAR": 0.00066414791, "MEAN_MOTION_DOT": 9.84e-06, "MEAN_MOTION_DDOT": 0}, "tle": {"line1": "1 30469U 99025AGG 25358.55272836  .00000984  00000+0  66415-3 0  9993", "line2": "2 30469  98.4786 208.3409 0158697 136.6062 280.2077 13.96541999958714"}}, "geometry": {"type": "Point", "coordinates": [22.629103365429437, -39.23590740418795]}}, {"type": "Feature", "properties": {"norad_id": 30471, "name": "FENGYUN 1C DEB", "group": "fengyun-1c-debris", "lat": 44.76690825878159, "lon": 78.61095804597419, "alt_km": 902.4969992010338, "timestamp": "2025-12-25T22:42:17.287839+00:00", "meta": {"OBJECT_NAME": "FENGYUN 1C DEB", "OBJECT_ID": "1999-025AGJ", "EPOCH": "2025-12-25T12:22:58.428192", "MEAN_MOTION": 14.13707804, "ECCENTRICITY": 0.0083594, "INCLINATION": 99.054, "RA_OF_ASC_NODE": 87.2757, "ARG_OF_PERICENTER": 217.9518, "MEAN_ANOMALY": 160.1488, "EPHEMERIS_TYPE": 0, "CLASSIFICATION_TYPE": "U", "NORAD_CAT_ID": 30471, "ELEMENT_SET_NO": 999, "REV_AT_EPOCH": 96623, "BSTAR": 0.0017675, "MEAN_MOTION_DOT": 3.408e-05, "MEAN_MOTION_DDOT": 0}, "tle": {"line1": "1 30471U 99025AGJ 25359.51595403  .00003408  00000+0  17675-2 0  9998", "line2": "2 30471  99.0540  87.2757 0083594 217.9518 160.1488 14.13707804966231"}}, "geometry": {"type": "Point", "coordinates": [78.61095804597419, 44.76690825878159]}}, {"type": "Feature", "properties": {"norad_id": 30472, "name": "FENGYUN 1C DEB", "group": "fengyun-1c-debris", "lat": -78.6221128649793, "lon": -127.67242287608104, "alt_km": 738.8140692400311, "timestamp": "2025-12-25T22:42:17.287849+00:00", "meta": {"OBJECT_NAME": "FENGYUN 1C DEB", "OBJECT_ID": "1999-025AGK", "EPOCH": "2025-12-25T06:55:27.417792", "MEAN_MOTION": 14.54011312, "ECCENTRICITY": 0.0037352, "INCLINATION": 98.651, "RA_OF_ASC_NODE": 100.8107, "ARG_OF_PERICENTER": 40.4281, "MEAN_ANOMALY": 22.6733, "EPHEMERIS_TYPE": 0, "CLASSIFICATION_TYPE": "U", "NORAD_CAT_ID": 30472, "ELEMENT_SET_NO": 999, "REV_AT_EPOCH": 98223, "BSTAR": 0.0022983, "MEAN_MOTION_DOT": 9.743e-05, "MEAN_MOTION_DDOT": 0}, "tle": {"line1": "1 30472U 99025AGK 25359.28851178  .00009743  00000+0  22983-2 0  9993", "line2": "2 30472  98.6510 100.8107 0037352  40.4281  22.6733 14.54011312982232"}}, "geometry": {"type": "Point", "coordinates": [-127.67242287608104, -78.6221128649793]}}, {"type": "Feature", "properties": {"norad_id": 30474, "name": "FENGYUN 1C DEB", "group": "fengyun-1c-debris", "lat": 79.15322155993039, "lon": -45.53796569846327, "alt_km": 769.7669072176996, "timestamp": "2025-12-25T22:42:17.287860+00:00", "meta": {"OBJECT_NAME": "FENGYUN 1C DEB", "OBJECT_ID": "1999-025AGM", "EPOCH": "2025-12-24T18:26:11.877792", "MEAN_MOTION": 14.37907205, "ECCENTRICITY": 0.00233297, "INCLINATION": 98.9276, "RA_OF_ASC_NODE": 78.1156, "ARG_OF_PERICENTER": 324.5532, "MEAN_ANOMALY": 157.8099, "EPHEMERIS_TYPE": 0, "CLASSIFICATION_TYPE": "U", "NORAD_CAT_ID": 30474, "ELEMENT_SET_NO": 999, "REV_AT_EPOCH": 97566, "BSTAR": 0.002238677, "MEAN_MOTION_DOT": 6.738e-05, "MEAN_MOTION_DDOT": 0}, "tle": {"line1": "1 30474U 99025AGM 25358.76819303  .00006738  00000+0  22387-2 0  9990", "line2": "2 30474  98.9276  78.1156 0023329 324.5532 157.8099 14.37907205975662"}}, "geometry": {"type": "Point", "coordinates": [-45.53796569846327, 79.15322155993039]}}, {"type": "Feature", "properties": {"norad_id": 30475, "name": "FENGYUN 1C DEB", "group": "fengyun-1c-debris", "lat": -8.140784909680157, "lon": -139.98397667540536, "alt_km": 830.2748657878365, "timestamp": "2025-12-25T22:42:17.287870+00:00", "meta": {"OBJECT_NAME": "FENGYUN 1C DEB", "OBJECT_ID": "1999-025AGN", "EPOCH": "2025-12-24T01:51:10.833408", "MEAN_MOTION": 14.15713628, "ECCENTRICITY": 0.00430736, "INCLINATION": 98.7871, "RA_OF_ASC_NODE": 39.4416, "ARG_OF_PERICENTER": 257.949, "MEAN_ANOMALY": 131.3364, "EPHEMERIS_TYPE": 0, "CLASSIFICATION_TYPE": "U", "NORAD_CAT_ID": 30475, "ELEMENT_SET_NO": 999, "REV_AT_EPOCH": 97112, "BSTAR": 0.00075394369, "MEAN_MOTION_DOT": 1.448e-05, "MEAN_MOTION_DDOT": 0}, "tle": {"line1": "1 30475U 99025AGN 25358.07720872  .00001448  00000+0  75394-3 0  9997", "line2": "2 30475  98.7871  39.4416 0043073 257.9490 131.3364 14.15713628971120"}}, "geometry": {"type": "Point", "coordinates": [-139.98397667540536, -8.140784909680157]}}, {"type": "Feature", "properties": {"norad_id": 30476, "name": "FENGYUN 1C DEB", "group": "fengyun-1c-debris", "lat": -15.358749981576779, "lon": -144.9624792915795, "alt_km": 813.2213548336085, "timestamp": "2025-12-25T22:42:17.287880+00:00", "meta": {"OBJECT_NAME": "FENGYUN 1C DEB", "OBJECT_ID": "1999-025AGP", "EPOCH": "2025-12-24T14:23:25.630944", "MEAN_MOTION": 14.20977548, "ECCENTRICITY": 0.00453854, "INCLINATION": 99.1239, "RA_OF_ASC_NODE": 36.1777, "ARG_OF_PERICENTER": 265.1751, "MEAN_ANOMALY": 246.8654, "EPHEMERIS_TYPE": 0, "CLASSIFICATION_TYPE": "U", "NORAD_CAT_ID": 30476, "ELEMENT_SET_NO": 999, "REV_AT_EPOCH": 97013, "BSTAR": 0.0013616041, "MEAN_MOTION_DOT": 2.934e-05, "MEAN_MOTION_DDOT": 0}, "tle": {"line1": "1 30476U 99025AGP 25358.59960221  .00002934  00000+0  13616-2 0  9998", "line2": "2 30476  99.1239  36.1777 0045385 265.1751 246.8654 14.20977548970130"}}, "geometry": {"type": "Point", "coordinates": [-144.9624792915795, -15.358749981576779]}}, {"type": "Feature", "properties": {"norad_id": 30477, "name": "FENGYUN 1C DEB", "group": "fengyun-1c-debris", "lat": -79.11123253802062, "lon": 141.4602916881958, "alt_km": 889.549911327611, "timestamp": "2025-12-25T22:42:17.287891+00:00", "meta": {"OBJECT_NAME": "FENGYUN 1C DEB", "OBJECT_ID": "1999-025AGQ", "EPOCH": "2025-12-24T17:06:57.740256", "MEAN_MOTION": 13.23866384, "ECCENTRICITY": 0.04352706, "INCLINATION": 99.4248, "RA_OF_ASC_NODE": 80.6407, "ARG_OF_PERICENTER": 248.3323, "MEAN_ANOMALY": 271.9302, "EPHEMERIS_TYPE": 0, "CLASSIFICATION_TYPE": "U", "NORAD_CAT_ID": 30477, "ELEMENT_SET_NO": 999, "REV_AT_EPOCH": 90877, "BSTAR": 0.0027412975, "MEAN_MOTION_DOT": 1.894e-05, "MEAN_MOTION_DDOT": 0}, "tle": {"line1": "1 30477U 99025AGQ 25358.71316829  .00001894  00000+0  27413-2 0  9996", "line2": "2 30477  99.4248  80.6407 0435270 248.3323 271.9302 13.23866384908779"}}, "geometry": {"type": "Point", "coordinates": [141.4602916881958, -79.11123253802062]}}, {"type": "Feature", "properties": {"norad_id": 30480, "name": "FENGYUN 1C DEB", "group": "fengyun-1c-debris", "lat": 3.9185385987563475, "lon": -165.32146381560568, "alt_km": 738.5648701858472, "timestamp": "2025-12-25T22:42:17.287901+00:00", "meta": {"OBJECT_NAME": "FENGYUN 1C DEB", "OBJECT_ID": "1999-025AGS", "EPOCH": "2025-12-25T07:07:56.155872", "MEAN_MOTION": 14.33616208, "ECCENTRICITY": 0.0166774, "INCLINATION": 98.2232, "RA_OF_ASC_NODE": 13.494, "ARG_OF_PERICENTER": 108.3468, "MEAN_ANOMALY": 318.9752, "EPHEMERIS_TYPE": 0, "CLASSIFICATION_TYPE": "U", "NORAD_CAT_ID": 30480, "ELEMENT_SET_NO": 999, "REV_AT_EPOCH": 98848, "BSTAR": 0.00021206, "MEAN_MOTION_DOT": 6.43e-06, "MEAN_MOTION_DDOT": 0}, "tle": {"line1": "1 30480U 99025AGS 25359.29717773  .00000643  00000+0  21206-3 0  9993", "line2": "2 30480  98.2232  13.4940 0166774 108.3468 318.9752 14.33616208988481"}}, "geometry": {"type": "Point", "coordinates": [-165.32146381560568, 3.9185385987563475]}}]}